[{"OBJECT_NAME":"STARLINK-32742","OBJECT_ID":"2025-008U","EPOCH":"2026-03-09T22:11:51.632160","MEAN_MOTION":15.27598516,"ECCENTRICITY":0.00015553,"INCLINATION":42.9999,"RA_OF_ASC_NODE":276.3047,"ARG_OF_PERICENTER":25.5196,"MEAN_ANOMALY":334.5732,"EPHEMERIS_TYPE":0,"CLASSIFICATION_TYPE":"U","NORAD_CAT_ID":62605,"ELEMENT_SET_NO":999,"REV_AT_EPOCH":6565,"BSTAR":0.0011855461,"MEAN_MOTION_DOT":0.00032524,"MEAN_MOTION_DDOT":0},{"OBJECT_NAME":"FLOCK 4G-6","OBJECT_ID":"2025-009BD","EPOCH":"2026-03-09T17:03:16.973568","MEAN_MOTION":15.27432125,"ECCENTRICITY":0.00023795,"INCLINATION":97.398,"RA_OF_ASC_NODE":150.7943,"ARG_OF_PERICENTER":348.2637,"MEAN_ANOMALY":11.8546,"EPHEMERIS_TYPE":0,"CLASSIFICATION_TYPE":"U","NORAD_CAT_ID":62660,"ELEMENT_SET_NO":999,"REV_AT_EPOCH":12130,"BSTAR":0.00045909501,"MEAN_MOTION_DOT":0.00012261,"MEAN_MOTION_DDOT":0}]
